NORAD_CAT_ID,OBJECT_NAME,OBJECT_TYPE,EPOCH,MEAN_MOTION,ECCENTRICITY,INCLINATION,RA_OF_ASC_NODE,ARG_OF_PERICENTER,MEAN_ANOMALY,BSTAR,MEAN_MOTION_DOT,MEAN_MOTION_DDOT,TLE_LINE0,TLE_LINE1,TLE_LINE2,SEMIMAJOR_AXIS,PERIOD,APOGEE,PERIGEE,DECAYED
53275.0,STARLINK-4179,PAYLOAD,2023-08-10 08:39:41,15.08843127,0.0001172,53.2173,94.3986,88.1389,271.9738,-3.8414e-05,-8.99e-06,0.0,0 STARLINK-4179,1 53275U 22086AK  23222.36089176 -.00000899  00000-0 -38414-4 0  9993,2 53275  53.2173  94.3986 0001172  88.1389 271.9738 15.08843127 58764,6917.871,95.437,540.547,538.925,0.0
53275.0,STARLINK-4179,PAYLOAD,2023-08-12 00:24:19,15.08844254,0.0001072,53.2176,86.9652,88.3189,271.7926,5.4926e-05,5.87e-06,0.0,0 STARLINK-4179,1 53275U 22086AK  23224.01689032  .00000587  00000-0  54926-4 0  9992,2 53275  53.2176  86.9652 0001072  88.3189 271.7926 15.08844254 59011,6917.867,95.437,540.474,538.991,0.0
53275.0,STARLINK-4179,PAYLOAD,2023-08-13 00:15:05,15.08851972,0.0001065,53.2158,82.504,103.6077,256.5034,0.00010595,1.399e-05,0.0,0 STARLINK-4179,1 53275U 22086AK  23225.01048148  .00001399  00000-0  10595-3 0  9995,2 53275  53.2158  82.5040 0001065 103.6077 256.5034 15.08851972 59165,6917.844,95.437,540.446,538.972,0.0
53275.0,STARLINK-4179,PAYLOAD,2023-08-13 17:44:20,15.08838997,0.0001142,53.2151,79.2336,96.5967,263.5155,7.1911e-05,8.57e-06,0.0,0 STARLINK-4179,1 53275U 22086AK  23225.73912957  .00000857  00000-0  71911-4 0  9990,2 53275  53.2151  79.2336 0001142  96.5967 263.5155 15.08838997 59279,6917.883,95.438,540.538,538.958,0.0
53275.0,STARLINK-4179,PAYLOAD,2023-08-14 23:56:40,15.08837854,0.0001105,53.2179,73.5835,102.9478,257.1638,-4.7156e-05,-1.038e-05,0.0,0 STARLINK-4179,1 53275U 22086AK  23226.99769259 -.00001038  00000-0 -47156-4 0  9992,2 53275  53.2179  73.5835 0001105 102.9478 257.1638 15.08837854 59465,6917.887,95.438,540.516,538.988,0.0
53275.0,STARLINK-4179,PAYLOAD,2023-08-16 06:09:00,15.08839342,0.0001083,53.2173,67.9345,105.8913,254.2198,-1.4295e-05,-5.15e-06,0.0,0 STARLINK-4179,1 53275U 22086AK  23228.25625302 -.00000515  00000-0 -14295-4 0  9990,2 53275  53.2173  67.9345 0001083 105.8913 254.2198 15.08839342 59657,6917.882,95.438,540.497,538.998,0.0
53275.0,STARLINK-4179,PAYLOAD,2023-08-16 23:38:15,15.0882458,0.0001251,53.2181,64.6633,87.3653,272.7483,0.00019317,2.787e-05,0.0,0 STARLINK-4179,1 53275U 22086AK  23228.98490066  .00002787  00000-0  19317-3 0  9997,2 53275  53.2181  64.6633 0001251  87.3653 272.7483 15.08824580 59764,6917.928,95.439,540.658,538.927,0.0
53275.0,STARLINK-4179,PAYLOAD,2023-08-17 23:29:02,15.0883692,0.0001672,53.2155,60.2026,84.6907,275.4276,0.00016772,2.382e-05,0.0,0 STARLINK-4179,1 53275U 22086AK  23229.97849690  .00002382  00000-0  16772-3 0  9991,2 53275  53.2155  60.2026 0001672  84.6907 275.4276 15.08836920 59910,6917.89,95.438,540.911,538.598,0.0
53275.0,STARLINK-4179,PAYLOAD,2023-08-18 05:50:35,15.08831796,0.0001401,53.2131,59.0131,93.7211,266.3941,0.00013443,1.852e-05,0.0,0 STARLINK-4179,1 53275U 22086AK  23230.24346082  .00001852  00000-0  13443-3 0  9993,2 53275  53.2131  59.0131 0001401  93.7211 266.3941 15.08831796 59954,6917.905,95.438,540.74,538.801,0.0
53275.0,STARLINK-4179,PAYLOAD,2023-08-19 05:41:21,15.08844915,0.0001001,53.2144,54.5537,92.6299,267.4807,-1.1085e-05,-4.64e-06,0.0,0 STARLINK-4179,1 53275U 22086AK  23231.23705695 -.00000464  00000-0 -11085-4 0  9993,2 53275  53.2144  54.5537 0001001  92.6299 267.4807 15.08844915 60107,6917.865,95.437,540.423,539.038,0.0
53275.0,STARLINK-4179,PAYLOAD,2023-08-20 11:53:41,15.08839517,0.0001168,53.2146,48.9027,87.2965,272.8161,8.2789e-05,1.03e-05,0.0,0 STARLINK-4179,1 53275U 22086AK  23232.49561806  .00001030  00000-0  82789-4 0  9993,2 53275  53.2146  48.9027 0001168  87.2965 272.8161 15.08839517 60299,6917.882,95.438,540.555,538.939,0.0
53275.0,STARLINK-4179,PAYLOAD,2023-08-20 23:01:22,15.08848512,0.0001086,53.2183,46.8222,86.946,273.1657,0.0001186,1.601e-05,0.0,0 STARLINK-4179,1 53275U 22086AK  23232.95929111  .00001601  00000-0  11860-3 0  9996,2 53275  53.2183  46.8222 0001086  86.9460 273.1657 15.08848512 60366,6917.854,95.437,540.471,538.968,0.0
53275.0,STARLINK-4179,PAYLOAD,2023-08-21 11:44:28,15.08833614,0.0001117,53.2185,44.4448,76.9012,283.2105,2.9604e-05,1.83e-06,0.0,0 STARLINK-4179,1 53275U 22086AK  23233.48922424  .00000183  00000-0  29604-4 0  9995,2 53275  53.2185  44.4448 0001117  76.9012 283.2105 15.08833614 60445,6917.9,95.438,540.538,538.992,0.0
53275.0,STARLINK-4179,PAYLOAD,2023-08-21 22:52:10,15.08843803,0.000129,53.2185,42.36,111.8974,248.2156,9.2362e-05,1.183e-05,0.0,0 STARLINK-4179,1 53275U 22086AK  23233.95289558  .00001183  00000-0  92362-4 0  9993,2 53275  53.2185  42.3600 0001290 111.8974 248.2156 15.08843803 60516,6917.869,95.437,540.626,538.841,0.0
53275.0,STARLINK-4179,PAYLOAD,2023-08-22 11:35:16,15.08837059,0.0001021,53.2185,39.9821,91.3441,268.7668,-2.3219e-05,-6.57e-06,0.0,0 STARLINK-4179,1 53275U 22086AK  23234.48282481 -.00000657  00000-0 -23219-4 0  9992,2 53275  53.2185  39.9821 0001021  91.3441 268.7668 15.08837059 60595,6917.889,95.438,540.461,539.048,0.0
53275.0,STARLINK-4179,PAYLOAD,2023-08-24 19:13:45,15.08843557,0.0001258,53.2199,29.5757,102.8823,257.231,0.00012737,1.74e-05,0.0,0 STARLINK-4179,1 53275U 22086AK  23236.80122095  .00001740  00000-0  12737-3 0  9998,2 53275  53.2199  29.5757 0001258 102.8823 257.2310 15.08843557 60943,6917.87,95.437,540.605,538.864,0.0
53275.0,STARLINK-4179,PAYLOAD,2023-08-24 20:49:08,15.08845669,0.000116,53.2188,29.2774,100.0928,260.0195,0.0001444,2.011e-05,0.0,0 STARLINK-4179,1 53275U 22086AK  23236.86745907  .00002011  00000-0  14440-3 0  9992,2 53275  53.2188  29.2774 0001160 100.0928 260.0195 15.08845669 61125,6917.863,95.437,540.531,538.926,0.0
53275.0,STARLINK-4179,PAYLOAD,2023-08-25 11:07:37,15.08841855,0.0001625,53.2184,26.6005,113.1886,246.9277,6.3784e-05,7.27e-06,0.0,0 STARLINK-4179,1 53275U 22086AK  23237.46362350  .00000727  00000-0  63784-4 0  9994,2 53275  53.2184  26.6005 0001625 113.1886 246.9277 15.08841855 61210,6917.875,95.437,540.864,538.616,0.0
53275.0,STARLINK-4179,PAYLOAD,2023-08-25 15:53:46,15.0884174,0.0001376,53.2191,25.7089,106.465,253.6494,4.9316e-05,4.97e-06,0.0,0 STARLINK-4179,1 53275U 22086AK  23237.66234397  .00000497  00000-0  49316-4 0  9994,2 53275  53.2191  25.7089 0001376 106.4650 253.6494 15.08841740 61070,6917.875,95.437,540.692,538.788,0.0
53275.0,STARLINK-4179,PAYLOAD,2023-08-26 09:23:01,15.0883956,0.0001464,53.2182,22.4375,109.5738,250.5413,5.5926e-05,6.02e-06,0.0,0 STARLINK-4179,1 53275U 22086AK  23238.39098541  .00000602  00000-0  55926-4 0  9996,2 53275  53.2182  22.4375 0001464 109.5738 250.5413 15.08839560 61356,6917.882,95.438,540.76,538.734,0.0
53275.0,STARLINK-4179,PAYLOAD,2023-08-26 17:19:56,15.08843394,0.0001173,53.2184,20.9512,98.5076,261.6049,5.3813e-05,5.69e-06,0.0,0 STARLINK-4179,1 53275U 22086AK  23238.72218341  .00000569  00000-0  53813-4 0  9990,2 53275  53.2184  20.9512 0001173  98.5076 261.6049 15.08843394 61238,6917.87,95.437,540.546,538.924,0.0
53275.0,STARLINK-4179,PAYLOAD,2023-08-27 09:13:48,15.08828261,0.0001107,53.2189,17.9785,95.7524,264.3595,0.00030182,4.517e-05,0.0,0 STARLINK-4179,1 53275U 22086AK  23239.38458922  .00004517  00000-0  30182-3 0  9994,2 53275  53.2189  17.9785 0001107  95.7524 264.3595 15.08828261 61338,6917.916,95.438,540.547,539.015,0.0
53275.0,STARLINK-4179,PAYLOAD,2023-08-27 15:35:20,15.0884648,0.0001231,53.2195,16.7903,85.2389,274.8744,0.00015544,2.187e-05,0.0,0 STARLINK-4179,1 53275U 22086AK  23239.64953879  .00002187  00000-0  15544-3 0  9990,2 53275  53.2195  16.7903 0001231  85.2389 274.8744 15.08846480 61374,6917.861,95.437,540.577,538.874,0.0
53275.0,STARLINK-4179,PAYLOAD,2023-08-28 09:04:35,15.08839931,0.000134,53.2193,13.5185,91.7005,268.414,4.2799e-05,3.93e-06,0.0,0 STARLINK-4179,1 53275U 22086AK  23240.37818532  .00000393  00000-0  42799-4 0  9998,2 53275  53.2193  13.5185 0001340  91.7005 268.4140 15.08839931 61481,6917.881,95.438,540.673,538.819,0.0
53275.0,STARLINK-4179,PAYLOAD,2023-08-28 15:26:07,15.08839801,0.0001256,53.2191,12.3287,91.8551,268.2586,3.6974e-05,3.01e-06,0.0,0 STARLINK-4179,1 53275U 22086AK  23240.64314533  .00000301  00000-0  36974-4 0  9997,2 53275  53.2191  12.3287 0001256  91.8551 268.2586 15.08839801 61693,6917.881,95.438,540.615,538.877,0.0
53275.0,STARLINK-4179,PAYLOAD,2023-08-29 13:41:31,15.08843966,0.000133,53.2191,8.1663,80.8687,279.2456,-5.1512e-06,-3.7e-06,0.0,0 STARLINK-4179,1 53275U 22086AK  23241.57050534 -.00000370  00000-0 -51512-5 0  9992,2 53275  53.2191   8.1663 0001330  80.8687 279.2456 15.08843966 61667,6917.868,95.437,540.653,538.813,0.0
53275.0,STARLINK-4179,PAYLOAD,2023-08-30 08:46:09,15.0883123,0.000121,53.2183,4.5973,87.4083,272.7048,8.5633e-05,1.075e-05,0.0,0 STARLINK-4179,1 53275U 22086AK  23242.36539120  .00001075  00000-0  85633-4 0  9994,2 53275  53.2183   4.5973 0001210  87.4083 272.7048 15.08831230 61781,6917.907,95.438,540.609,538.935,0.0
53275.0,STARLINK-4179,PAYLOAD,2023-08-30 15:07:42,15.08836891,0.0001215,53.2192,3.409,84.9658,275.1473,0.00012692,1.732e-05,0.0,0 STARLINK-4179,1 53275U 22086AK  23242.63034811  .00001732  00000-0  12692-3 0  9995,2 53275  53.2192   3.4090 0001215  84.9658 275.1473 15.08836891 61994,6917.89,95.438,540.595,538.914,0.0
53275.0,STARLINK-4179,PAYLOAD,2023-08-31 00:40:00,15.08842977,0.000118,53.2192,1.6249,85.0434,275.0692,6.2157e-05,7.02e-06,0.0,0 STARLINK-4179,1 53275U 22086AK  23243.02778568  .00000702  00000-0  62157-4 0  9991,2 53275  53.2192   1.6249 0001180  85.0434 275.0692 15.08842977 61887,6917.871,95.437,540.553,538.92,0.0
53275.0,STARLINK-4179,PAYLOAD,2023-08-31 08:36:57,15.08834907,0.0001286,53.2195,0.1402,94.3109,265.803,3.2637e-05,2.32e-06,0.0,0 STARLINK-4179,1 53275U 22086AK  23243.35899419  .00000232  00000-0  32637-4 0  9994,2 53275  53.2195   0.1402 0001286  94.3109 265.8030 15.08834907 61937,6917.896,95.438,540.651,538.871,0.0
